CTC2_L_00438016-03
1 19163U 26572TV  26037.47795139  .00000000  00000+0  00000-0 0  9994
2 19163  70.0000 180.0000 0000000   0.0000   0.0000 12.41559219    18
CTC2_L_00438016-04
1 19164U 22568RF  26037.47795139  .00000000  00000+0  00000-0 0  9996
2 19164  70.0000 180.0000 0000000   0.0000  90.0000 12.41559219    18
CTC2_L_00438017-01
1 19165U 26739WF  26037.47795139  .00000000  00000+0  00000-0 0  9991
2 19165  70.0000 192.0000 0000000   0.0000 192.0000 12.41559219    15
CTC2_L_00438017-02
1 19166U 22732WV  26037.47795139  .00000000  00000+0  00000-0 0  9991
2 19166  70.0000 192.0000 0000000   0.0000 282.0000 12.41559219    16
CTC2_L_00438017-03
1 19167U 25041P   26037.47795139  .00000000  00000+0  00000-0 0  9998
2 19167  70.0000 192.0000 0000000   0.0000  12.0000 12.41559219    18
CTC2_L_00438017-04
1 19168U 24161QH  26037.47795139  .00000000  00000+0  00000-0 0  9991
2 19168  70.0000 192.0000 0000000   0.0000 102.0000 12.41559219    19
CTC2_L_00438018-01
1 19169U 22993WQ  26037.47795139  .00000000  00000+0  00000-0 0  9993
2 19169  70.0000 204.0000 0000000   0.0000 204.0000 12.41559219    17
CTC2_L_00438018-02
1 19170U 24985GY  26037.47795139  .00000000  00000+0  00000-0 0  9998
2 19170  70.0000 204.0000 0000000   0.0000 294.0000 12.41559219    18
CTC2_L_00438018-03
1 19171U 25768ZW  26037.47795139  .00000000  00000+0  00000-0 0  9999
2 19171  70.0000 204.0000 0000000   0.0000  24.0000 12.41559219    10
CTC2_L_00438018-04
1 19172U 24147PV  26037.47795139  .00000000  00000+0  00000-0 0  9990
2 19172  70.0000 204.0000 0000000   0.0000 114.0000 12.41559219    11
CTC2_L_00438019-01
1 19173U 25063HG  26037.47795139  .00000000  00000+0  00000-0 0  9999
2 19173  70.0000 216.0000 0000000   0.0000 216.0000 12.41559219    18
CTC2_L_00438019-02
1 19174U 22870TV  26037.47795139  .00000000  00000+0  00000-0 0  9993
2 19174  70.0000 216.0000 0000000   0.0000 306.0000 12.41559219    19
CTC2_L_00438019-03
1 19175U 25712TY  26037.47795139  .00000000  00000+0  00000-0 0  9992
2 19175  70.0000 216.0000 0000000   0.0000  36.0000 12.41559219    10
CTC2_L_00438019-04
1 19176U 23693KK  26037.47795139  .00000000  00000+0  00000-0 0  9999
2 19176  70.0000 216.0000 0000000   0.0000 126.0000 12.41559219    11
CTC2_L_00438020-01
1 19177U 24265ON  26037.47795139  .00000000  00000+0  00000-0 0  9996
2 19177  70.0000 228.0000 0000000   0.0000 228.0000 12.41559219    18
CTC2_L_00438020-02
1 19178U 26379RA  26037.47795139  .00000000  00000+0  00000-0 0  9995
2 19178  70.0000 228.0000 0000000   0.0000 318.0000 12.41559219    19
CTC2_L_00438020-03
1 19179U 23175RW  26037.47795139  .00000000  00000+0  00000-0 0  9997
2 19179  70.0000 228.0000 0000000   0.0000  48.0000 12.41559219    10
CTC2_L_00438020-04
1 19180U 26916EP  26037.47795139  .00000000  00000+0  00000-0 0  9995
2 19180  70.0000 228.0000 0000000   0.0000 138.0000 12.41559219    12
CTC2_L_00438021-01
1 19181U 24072UF  26037.47795139  .00000000  00000+0  00000-0 0  9997
2 19181  70.0000 240.0000 0000000   0.0000 240.0000 12.41559219    11
CTC2_L_00438021-02
1 19182U 26228WT  26037.47795139  .00000000  00000+0  00000-0 0  9993
2 19182  70.0000 240.0000 0000000   0.0000 330.0000 12.41559219    12
CTC2_L_00438021-03
1 19183U 25107RF  26037.47795139  .00000000  00000+0  00000-0 0  9999
2 19183  70.0000 240.0000 0000000   0.0000  60.0000 12.41559219    13
CTC2_L_00438021-04
1 19184U 22038HD  26037.47795139  .00000000  00000+0  00000-0 0  9990
2 19184  70.0000 240.0000 0000000   0.0000 150.0000 12.41559219    14
CTC2_L_00438022-01
1 19185U 24715GQ  26037.47795139  .00000000  00000+0  00000-0 0  9995
2 19185  70.0000 252.0000 0000000   0.0000 252.0000 12.41559219    11
CTC2_L_00438022-02
1 19186U 22423HS  26037.47795139  .00000000  00000+0  00000-0 0  9990
2 19186  70.0000 252.0000 0000000   0.0000 342.0000 12.41559219    12
CTC2_L_00438022-03
1 19187U 23807HN  26037.47795139  .00000000  00000+0  00000-0 0  9998
2 19187  70.0000 252.0000 0000000   0.0000  72.0000 12.41559219    13
CTC2_L_00438022-04
1 19188U 22873FZ  26037.47795139  .00000000  00000+0  00000-0 0  9991
2 19188  70.0000 252.0000 0000000   0.0000 162.0000 12.41559219    14
CTC2_L_00438023-01
1 19189U 23856QL  26037.47795139  .00000000  00000+0  00000-0 0  9994
2 19189  70.0000 264.0000 0000000   0.0000 264.0000 12.41559219    11
CTC2_L_00438023-02
1 19190U 26168UN  26037.47795139  .00000000  00000+0  00000-0 0  9995
2 19190  70.0000 264.0000 0000000   0.0000 354.0000 12.41559219    13
CTC2_L_00438023-03
1 19191U 25425RU  26037.47795139  .00000000  00000+0  00000-0 0  9991
2 19191  70.0000 264.0000 0000000   0.0000  84.0000 12.41559219    14
CTC2_L_00438023-04
1 19192U 23735PA  26037.47795139  .00000000  00000+0  00000-0 0  9994
2 19192  70.0000 264.0000 0000000   0.0000 174.0000 12.41559219    15
CTC2_L_00438024-01
1 19193U 26406TL  26037.47795139  .00000000  00000+0  00000-0 0  9993
2 19193  70.0000 276.0000 0000000   0.0000 276.0000 12.41559219    12
CTC2_L_00438024-02
1 19194U 26103KC  26037.47795139  .00000000  00000+0  00000-0 0  9998
2 19194  70.0000 276.0000 0000000   0.0000   6.0000 12.41559219    14
CTC2_L_00438024-03
1 19195U 22074VC  26037.47795139  .00000000  00000+0  00000-0 0  9992
2 19195  70.0000 276.0000 0000000   0.0000  96.0000 12.41559219    14
CTC2_L_00438024-04
1 19196U 22357AZ  26037.47795139  .00000000  00000+0  00000-0 0  9997
2 19196  70.0000 276.0000 0000000   0.0000 186.0000 12.41559219    15
CTC2_L_00438025-01
1 19197U 25014MH  26037.47795139  .00000000  00000+0  00000-0 0  9991
2 19197  70.0000 288.0000 0000000   0.0000 288.0000 12.41559219    12
CTC2_L_00438025-02
1 19198U 22843V   26037.47795139  .00000000  00000+0  00000-0 0  9999
2 19198  70.0000 288.0000 0000000   0.0000  18.0000 12.41559219    14
CTC2_L_00438025-03
1 19199U 25508RZ  26037.47795139  .00000000  00000+0  00000-0 0  9991
2 19199  70.0000 288.0000 0000000   0.0000 108.0000 12.41559219    15
CTC2_L_00438025-04
1 19200U 23233D   26037.47795139  .00000000  00000+0  00000-0 0  9997
2 19200  70.0000 288.0000 0000000   0.0000 198.0000 12.41559219    17
CTC2_L_00438026-01
1 19201U 22350ZR  26037.47795139  .00000000  00000+0  00000-0 0  9997
2 19201  70.0000 300.0000 0000000   0.0000 300.0000 12.41559219    18
CTC2_L_00438026-02
1 19202U 23281PX  26037.47795139  .00000000  00000+0  00000-0 0  9992
2 19202  70.0000 300.0000 0000000   0.0000  30.0000 12.41559219    19
CTC2_L_00438026-03
1 19203U 26322IK  26037.47795139  .00000000  00000+0  00000-0 0  9992
2 19203  70.0000 300.0000 0000000   0.0000 120.0000 12.41559219    10
CTC2_L_00438026-04
1 19204U 25283PK  26037.47795139  .00000000  00000+0  00000-0 0  9998
2 19204  70.0000 300.0000 0000000   0.0000 210.0000 12.41559219    11
CTC2_L_00438027-01
1 19205U 22321QP  26037.47795139  .00000000  00000+0  00000-0 0  9999
2 19205  70.0000 312.0000 0000000   0.0000 312.0000 12.41559219    18
CTC2_L_00438027-02
1 19206U 24599AO  26037.47795139  .00000000  00000+0  00000-0 0  9999
2 19206  70.0000 312.0000 0000000   0.0000  42.0000 12.41559219    19
CTC2_L_00438027-03
1 19207U 23318BU  26037.47795139  .00000000  00000+0  00000-0 0  9998
2 19207  70.0000 312.0000 0000000   0.0000 132.0000 12.41559219    10
CTC2_L_00438027-04
1 19208U 26057P   26037.47795139  .00000000  00000+0  00000-0 0  9992
2 19208  70.0000 312.0000 0000000   0.0000 222.0000 12.41559219    11
CTC2_L_00438028-01
1 19209U 26023AU  26037.47795139  .00000000  00000+0  00000-0 0  9996
2 19209  70.0000 324.0000 0000000   0.0000 324.0000 12.41559219    18
CTC2_L_00438028-02
1 19210U 25719MV  26037.47795139  .00000000  00000+0  00000-0 0  9999
2 19210  70.0000 324.0000 0000000   0.0000  54.0000 12.41559219    10
CTC2_L_00438028-03
1 19211U 26575QB  26037.47795139  .00000000  00000+0  00000-0 0  9991
2 19211  70.0000 324.0000 0000000   0.0000 144.0000 12.41559219    11
CTC2_L_00438028-04
1 19212U 25075JO  26037.47795139  .00000000  00000+0  00000-0 0  9996
2 19212  70.0000 324.0000 0000000   0.0000 234.0000 12.41559219    12
CTC2_L_00438029-01
1 19213U 24978QQ  26037.47795139  .00000000  00000+0  00000-0 0  9998
2 19213  70.0000 336.0000 0000000   0.0000 336.0000 12.41559219    19
CTC2_L_00438029-02
1 19214U 23535YY  26037.47795139  .00000000  00000+0  00000-0 0  9997
2 19214  70.0000 336.0000 0000000   0.0000  66.0000 12.41559219    10
CTC2_L_00438029-03
1 19215U 26583UU  26037.47795139  .00000000  00000+0  00000-0 0  9994
2 19215  70.0000 336.0000 0000000   0.0000 156.0000 12.41559219    11
CTC2_L_00438029-04
1 19216U 22164XM  26037.47795139  .00000000  00000+0  00000-0 0  9996
2 19216  70.0000 336.0000 0000000   0.0000 246.0000 12.41559219    12
CTC2_L_00438030-01
1 19217U 22358YK  26037.47795139  .00000000  00000+0  00000-0 0  9992
2 19217  70.0000 348.0000 0000000   0.0000 348.0000 12.41559219    19
CTC2_L_00438030-02
1 19218U 26265M   26037.47795139  .00000000  00000+0  00000-0 0  9994
2 19218  70.0000 348.0000 0000000   0.0000  78.0000 12.41559219    10
CTC2_L_00438030-03
1 19219U 23072I   26037.47795139  .00000000  00000+0  00000-0 0  9998
2 19219  70.0000 348.0000 0000000   0.0000 168.0000 12.41559219    11
CTC2_L_00438030-04
1 19220U 26938KS  26037.47795139  .00000000  00000+0  00000-0 0  9994
2 19220  70.0000 348.0000 0000000   0.0000 258.0000 12.41559219    13
